IRIDIUM 150             
1 43257U 18030J   23324.50575132  .00000175  00000+0  55336-4 0  9993
2 43257  86.3941 323.1980 0002456  97.6079 262.5395 14.34219095295472
IRIDIUM 143             
1 43258U 18030K   23324.48670722  .00000171  00000+0  53838-4 0  9993
2 43258  86.3945 323.2612 0002491  89.0595 271.0886 14.34218176295409
IRIDIUM 161             
1 43478U 18047C   23324.52807823  .00000228  00000+0  61916-4 0  9993
2 43478  86.4467 121.2189 0002033  92.8833 267.2601 14.43273706289604
IRIDIUM 152             
1 43479U 18047D   23324.52919834  .00000125  00000+0  37631-4 0  9993
2 43479  86.3939 121.0780 0002236  87.1441 273.0011 14.34219261287806
IRIDIUM 147             
1 43480U 18047E   23324.53553248  .00000123  00000+0  36692-4 0  9993
2 43480  86.3941 121.0641 0001835  95.1651 264.9754 14.34218405287805
IRIDIUM 110             
1 43481U 18047F   23324.47210921  .00000120  00000+0  35956-4 0  9994
2 43481  86.3942 121.1579 0001841  98.4896 261.6509 14.34217803287782
IRIDIUM 162             
1 43482U 18047G   23324.52177826  .00000251  00000+0  68694-4 0  9997
2 43482  86.4466 121.1244 0002062  93.6901 266.4536 14.43273318289591
IRIDIUM 160             
1 43569U 18061A   23324.83656399  .00000343  00000+0  11529-3 0  9996
2 43569  86.3954  89.3610 0001919  85.3386 274.8029 14.34219559278736
